HXMT (HUIYAN)           
1 42758U 17034A   26092.27409590  .00006074  00000+0  30321-3 0  9994
2 42758  43.0136 245.5220 0031237  21.6388 338.5774 15.17763041486122
SAOCOM 1A               
1 43641U 18076A   26092.25417194 -.00000739  00000+0 -86319-4 0  9993
2 43641  97.8897 280.0941 0001380  87.1335 273.0036 14.82142761404859
H-2A R/B                
1 43682U 18084L   26092.16094733  .00029051  00000+0  66741-3 0  9999
2 43682  98.8695 314.5813 0023450 302.7525  57.1458 15.42371244409391
SAOCOM 1B               
1 46265U 20059A   26092.28542215  .00001054  00000+0  13898-3 0  9998
2 46265  97.8885 279.2220 0001477  85.0236 275.1146 14.82148052302249
CSS (TIANHE)            
1 48274U 21035A   26091.36022109  .00024066  00000+0  27286-3 0  9992
2 48274  41.4670  70.0996 0003721  85.9086 274.2179 15.61804306281152
COSMOS 2550             
1 48865U 21056A   26091.47039022  .00005639  00000+0  17705-3 0  9995
2 48865  67.1445 331.9738 0008328 269.3207  90.6993 15.33839536266954
CZ-2C R/B               
1 52794U 22058K   26091.58083286  .00043661  00000+0  59540-3 0  9997
2 52794  50.1881 200.3863 0041330 299.0451  60.6383 15.55999580213698
CZ-2C R/B               
1 54039U 22132E   26092.25286447  .00055662  00000+0  58268-3 0  9993
2 54039  97.2950  96.3241 0016524  12.9034 347.2644 15.64092964194052
GSLV R/B                
1 54149U 22138AN  26092.25276544  .00004401  00000+0  37878-3 0  9997
2 54149  87.3853 158.4731 0023876  69.1076 291.2708 14.96925687187454
XRISM                   
1 57800U 23137A   26092.14771571  .00006385  00000+0  35922-3 0  9993
2 57800  31.0012 131.9035 0007903 274.9967  84.9770 15.11778521141340
ACS3                    
1 59588U 24077B   26092.32192737  .00031643  00000+0  24713-1 0  9992
2 59588  97.1958  28.1225 0073127  23.0795 337.3627 13.90761909 97486
HTV-X1                  
1 66174U 25241A   26092.32216159  .00002012  00000+0  74807-4 0  9990
2 66174  51.6372 319.1601 0007232 263.7967  96.2190 15.32498869 24564
SZ-21 MODULE            
1 66515U 25246C   26092.23545067  .00052107  00000+0  41273-3 0  9997
2 66515  41.4744  58.2163 0002689 222.0292 138.0345 15.70445326 21776
